SORCE                   
1 27651U 03004A   26068.43340162  .00003920  00000+0  29573-3 0  9995
2 27651  39.9899 110.5611 0015930  53.0009 307.2241 15.03094555256885
STARLINK-34926          
1 65194U 25175W   26068.61348791  .00007441  00000+0  51926-3 0  9997
2 65194  97.6020 302.6561 0003050  98.7357 261.4215 15.05656828 32609
